STARLINK-5682           
1 55457U 23015J   25314.24582423 -.00000327  00000+0 -91219-5 0  9992
2 55457  43.0039 255.2664 0001273 269.1304  90.9393 15.02527525152785
STARLINK-5020           
1 55458U 23015K   25314.89727995 -.00001480  00000+0 -94536-4 0  9994
2 55458  43.0020 251.5516 0001005 274.9157  85.1570 15.02527763152882
STARLINK-5669           
1 55459U 23015L   25314.83521409  .00002229  00000+0  17993-3 0  9992
2 55459  43.0073 251.9484 0001724 263.8308  96.2338 15.02564222152877
STARLINK-5678           
1 55460U 23015M   25314.56599457  .00007300  00000+0  55455-3 0  9992
2 55460  43.0026 253.3684 0001571 269.5199  90.5463 15.02558833152839
STARLINK-5646           
1 55461U 23015N   25314.24026662 -.00000598  00000+0 -29165-4 0  9995
2 55461  43.0051 255.2225 0001347 268.4570  91.6118 15.02537901152788
STARLINK-5673           
1 55462U 23015P   25314.22251166  .00004205  00000+0  32623-3 0  9992
2 55462  43.0041 255.0879 0001509 260.1267  99.9405 15.02531090152786
STARLINK-5677           
1 55463U 23015Q   25314.56045026  .00001129  00000+0  98658-4 0  9999
2 55463  43.0057 253.3261 0001238 272.5431  87.5269 15.02534113152835
STARLINK-5676           
1 55464U 23015R   25314.88061723 -.00003934  00000+0 -27615-3 0  9999
2 55464  43.0045 251.4273 0001125 270.8828  89.1885 15.02561767152883
STARLINK-5674           
1 55465U 23015S   25314.21918053  .00000198  00000+0  29712-4 0  9992
2 55465  43.0040 255.0656 0001253 262.5303  97.5397 15.02536464152788
STARLINK-5628           
1 55466U 23015T   25314.86730171  .00001362  00000+0  11587-3 0  9991
2 55466  43.0042 251.3251 0001292 263.4380  96.6315 15.02538559152887
STARLINK-5679           
1 55467U 23015U   25314.82412516  .00002963  00000+0  23430-3 0  9996
2 55467  43.0048 251.8643 0001270 252.9326 107.1377 15.02543234152874
STARLINK-5672           
1 55468U 23015V   25314.87841244 -.00000069  00000+0  99545-5 0  9994
2 55468  43.0080 251.4098 0001402 263.4073  96.6610 15.02528446152885
STARLINK-5681           
1 55469U 23015W   25314.21696149  .00000015  00000+0  16212-4 0  9994
2 55469  43.0036 255.0471 0001090 271.8946  88.1771 15.02532698152784
STARLINK-5708           
1 55470U 23015X   25314.87399717 -.00006619  00000+0 -47562-3 0  9998
2 55470  43.0038 251.3764 0001011 264.7901  95.2826 15.02516524152888
STARLINK-5711           
1 55471U 23015Y   25314.87174334  .00000446  00000+0  48104-4 0  9999
2 55471  43.0047 251.3567 0001145 259.5528 100.5186 15.02537204152882
STARLINK-5705           
1 55472U 23015Z   25314.13975859 -.00001371  00000+0 -86455-4 0  9991
2 55472  43.0053 243.1842 0001343 276.5008  83.5682 15.02539139152911
