[{"OBJECT_NAME":"STARLINK-5682","OBJECT_ID":"2023-015J","EPOCH":"2025-11-10T05:53:59.213472","MEAN_MOTION":15.02527525,"ECCENTRICITY":0.00012733,"INCLINATION":43.0039,"RA_OF_ASC_NODE":255.2664,"ARG_OF_PERICENTER":269.1304,"MEAN_ANOMALY":90.9393,"EPHEMERIS_TYPE":0,"CLASSIFICATION_TYPE":"U","NORAD_CAT_ID":55457,"ELEMENT_SET_NO":999,"REV_AT_EPOCH":15278,"BSTAR":-9.121876e-6,"MEAN_MOTION_DOT":-3.27e-6,"MEAN_MOTION_DDOT":0},{"OBJECT_NAME":"STARLINK-5020","OBJECT_ID":"2023-015K","EPOCH":"2025-11-10T21:32:04.987680","MEAN_MOTION":15.02527763,"ECCENTRICITY":0.00010055,"INCLINATION":43.002,"RA_OF_ASC_NODE":251.5516,"ARG_OF_PERICENTER":274.9157,"MEAN_ANOMALY":85.157,"EPHEMERIS_TYPE":0,"CLASSIFICATION_TYPE":"U","NORAD_CAT_ID":55458,"ELEMENT_SET_NO":999,"REV_AT_EPOCH":15288,"BSTAR":-9.4535707e-5,"MEAN_MOTION_DOT":-1.48e-5,"MEAN_MOTION_DDOT":0},{"OBJECT_NAME":"STARLINK-5669","OBJECT_ID":"2023-015L","EPOCH":"2025-11-10T20:02:42.497376","MEAN_MOTION":15.02564222,"ECCENTRICITY":0.00017249,"INCLINATION":43.0073,"RA_OF_ASC_NODE":251.9484,"ARG_OF_PERICENTER":263.8308,"MEAN_ANOMALY":96.2338,"EPHEMERIS_TYPE":0,"CLASSIFICATION_TYPE":"U","NORAD_CAT_ID":55459,"ELEMENT_SET_NO":999,"REV_AT_EPOCH":15287,"BSTAR":0.0001799303,"MEAN_MOTION_DOT":2.229e-5,"MEAN_MOTION_DDOT":0},{"OBJECT_NAME":"STARLINK-5678","OBJECT_ID":"2023-015M","EPOCH":"2025-11-10T13:35:01.930848","MEAN_MOTION":15.02558833,"ECCENTRICITY":0.00015718,"INCLINATION":43.0026,"RA_OF_ASC_NODE":253.3684,"ARG_OF_PERICENTER":269.5199,"MEAN_ANOMALY":90.5463,"EPHEMERIS_TYPE":0,"CLASSIFICATION_TYPE":"U","NORAD_CAT_ID":55460,"ELEMENT_SET_NO":999,"REV_AT_EPOCH":15283,"BSTAR":0.00055454807,"MEAN_MOTION_DOT":7.3e-5,"MEAN_MOTION_DDOT":0},{"OBJECT_NAME":"STARLINK-5646","OBJECT_ID":"2023-015N","EPOCH":"2025-11-10T05:45:59.035968","MEAN_MOTION":15.02537901,"ECCENTRICITY":0.00013474,"INCLINATION":43.0051,"RA_OF_ASC_NODE":255.2225,"ARG_OF_PERICENTER":268.457,"MEAN_ANOMALY":91.6118,"EPHEMERIS_TYPE":0,"CLASSIFICATION_TYPE":"U","NORAD_CAT_ID":55461,"ELEMENT_SET_NO":999,"REV_AT_EPOCH":15278,"BSTAR":-2.9164813e-5,"MEAN_MOTION_DOT":-5.98e-6,"MEAN_MOTION_DDOT":0},{"OBJECT_NAME":"STARLINK-5673","OBJECT_ID":"2023-015P","EPOCH":"2025-11-10T05:20:25.007424","MEAN_MOTION":15.0253109,"ECCENTRICITY":0.00015095,"INCLINATION":43.0041,"RA_OF_ASC_NODE":255.0879,"ARG_OF_PERICENTER":260.1267,"MEAN_ANOMALY":99.9405,"EPHEMERIS_TYPE":0,"CLASSIFICATION_TYPE":"U","NORAD_CAT_ID":55462,"ELEMENT_SET_NO":999,"REV_AT_EPOCH":15278,"BSTAR":0.00032622652,"MEAN_MOTION_DOT":4.205e-5,"MEAN_MOTION_DDOT":0},{"OBJECT_NAME":"STARLINK-5677","OBJECT_ID":"2023-015Q","EPOCH":"2025-11-10T13:27:02.902464","MEAN_MOTION":15.02534113,"ECCENTRICITY":0.00012387,"INCLINATION":43.0057,"RA_OF_ASC_NODE":253.3261,"ARG_OF_PERICENTER":272.5431,"MEAN_ANOMALY":87.5269,"EPHEMERIS_TYPE":0,"CLASSIFICATION_TYPE":"U","NORAD_CAT_ID":55463,"ELEMENT_SET_NO":999,"REV_AT_EPOCH":15283,"BSTAR":9.8657882e-5,"MEAN_MOTION_DOT":1.129e-5,"MEAN_MOTION_DDOT":0},{"OBJECT_NAME":"STARLINK-5676","OBJECT_ID":"2023-015R","EPOCH":"2025-11-10T21:08:05.328672","MEAN_MOTION":15.02561767,"ECCENTRICITY":0.00011256,"INCLINATION":43.0045,"RA_OF_ASC_NODE":251.4273,"ARG_OF_PERICENTER":270.8828,"MEAN_ANOMALY":89.1885,"EPHEMERIS_TYPE":0,"CLASSIFICATION_TYPE":"U","NORAD_CAT_ID":55464,"ELEMENT_SET_NO":999,"REV_AT_EPOCH":15288,"BSTAR":-0.00027614732,"MEAN_MOTION_DOT":-3.934e-5,"MEAN_MOTION_DDOT":0},{"OBJECT_NAME":"STARLINK-5674","OBJECT_ID":"2023-015S","EPOCH":"2025-11-10T05:15:37.197792","MEAN_MOTION":15.02536464,"ECCENTRICITY":0.00012538,"INCLINATION":43.004,"RA_OF_ASC_NODE":255.0656,"ARG_OF_PERICENTER":262.5303,"MEAN_ANOMALY":97.5397,"EPHEMERIS_TYPE":0,"CLASSIFICATION_TYPE":"U","NORAD_CAT_ID":55465,"ELEMENT_SET_NO":999,"REV_AT_EPOCH":15278,"BSTAR":2.9711977e-5,"MEAN_MOTION_DOT":1.98e-6,"MEAN_MOTION_DDOT":0},{"OBJECT_NAME":"STARLINK-5628","OBJECT_ID":"2023-015T","EPOCH":"2025-11-10T20:48:54.867744","MEAN_MOTION":15.02538559,"ECCENTRICITY":0.00012922,"INCLINATION":43.0042,"RA_OF_ASC_NODE":251.3251,"ARG_OF_PERICENTER":263.438,"MEAN_ANOMALY":96.6315,"EPHEMERIS_TYPE":0,"CLASSIFICATION_TYPE":"U","NORAD_CAT_ID":55466,"ELEMENT_SET_NO":999,"REV_AT_EPOCH":15288,"BSTAR":0.00011587189,"MEAN_MOTION_DOT":1.362e-5,"MEAN_MOTION_DDOT":0},{"OBJECT_NAME":"STARLINK-5679","OBJECT_ID":"2023-015U","EPOCH":"2025-11-10T19:46:44.413824","MEAN_MOTION":15.02543234,"ECCENTRICITY":0.00012708,"INCLINATION":43.0048,"RA_OF_ASC_NODE":251.8643,"ARG_OF_PERICENTER":252.9326,"MEAN_ANOMALY":107.1377,"EPHEMERIS_TYPE":0,"CLASSIFICATION_TYPE":"U","NORAD_CAT_ID":55467,"ELEMENT_SET_NO":999,"REV_AT_EPOCH":15287,"BSTAR":0.00023429896,"MEAN_MOTION_DOT":2.963e-5,"MEAN_MOTION_DDOT":0},{"OBJECT_NAME":"STARLINK-5672","OBJECT_ID":"2023-015V","EPOCH":"2025-11-10T21:04:54.834816","MEAN_MOTION":15.02528446,"ECCENTRICITY":0.00014026,"INCLINATION":43.008,"RA_OF_ASC_NODE":251.4098,"ARG_OF_PERICENTER":263.4073,"MEAN_ANOMALY":96.661,"EPHEMERIS_TYPE":0,"CLASSIFICATION_TYPE":"U","NORAD_CAT_ID":55468,"ELEMENT_SET_NO":999,"REV_AT_EPOCH":15288,"BSTAR":9.954498e-6,"MEAN_MOTION_DOT":-6.9e-7,"MEAN_MOTION_DDOT":0},{"OBJECT_NAME":"STARLINK-5681","OBJECT_ID":"2023-015W","EPOCH":"2025-11-10T05:12:25.472736","MEAN_MOTION":15.02532698,"ECCENTRICITY":0.00010907,"INCLINATION":43.0036,"RA_OF_ASC_NODE":255.0471,"ARG_OF_PERICENTER":271.8946,"MEAN_ANOMALY":88.1771,"EPHEMERIS_TYPE":0,"CLASSIFICATION_TYPE":"U","NORAD_CAT_ID":55469,"ELEMENT_SET_NO":999,"REV_AT_EPOCH":15278,"BSTAR":1.6211707e-5,"MEAN_MOTION_DOT":1.5e-7,"MEAN_MOTION_DDOT":0},{"OBJECT_NAME":"STARLINK-5708","OBJECT_ID":"2023-015X","EPOCH":"2025-11-10T20:58:33.355488","MEAN_MOTION":15.02516524,"ECCENTRICITY":0.00010118,"INCLINATION":43.0038,"RA_OF_ASC_NODE":251.3764,"ARG_OF_PERICENTER":264.7901,"MEAN_ANOMALY":95.2826,"EPHEMERIS_TYPE":0,"CLASSIFICATION_TYPE":"U","NORAD_CAT_ID":55470,"ELEMENT_SET_NO":999,"REV_AT_EPOCH":15288,"BSTAR":-0.00047561806,"MEAN_MOTION_DOT":-6.619e-5,"MEAN_MOTION_DDOT":0},{"OBJECT_NAME":"STARLINK-5711","OBJECT_ID":"2023-015Y","EPOCH":"2025-11-10T20:55:18.624576","MEAN_MOTION":15.02537204,"ECCENTRICITY":0.00011454,"INCLINATION":43.0047,"RA_OF_ASC_NODE":251.3567,"ARG_OF_PERICENTER":259.5528,"MEAN_ANOMALY":100.5186,"EPHEMERIS_TYPE":0,"CLASSIFICATION_TYPE":"U","NORAD_CAT_ID":55471,"ELEMENT_SET_NO":999,"REV_AT_EPOCH":15288,"BSTAR":4.8104023e-5,"MEAN_MOTION_DOT":4.46e-6,"MEAN_MOTION_DDOT":0},{"OBJECT_NAME":"STARLINK-5705","OBJECT_ID":"2023-015Z","EPOCH":"2025-11-10T03:21:15.142176","MEAN_MOTION":15.02539139,"ECCENTRICITY":0.00013439,"INCLINATION":43.0053,"RA_OF_ASC_NODE":243.1842,"ARG_OF_PERICENTER":276.5008,"MEAN_ANOMALY":83.5682,"EPHEMERIS_TYPE":0,"CLASSIFICATION_TYPE":"U","NORAD_CAT_ID":55472,"ELEMENT_SET_NO":999,"REV_AT_EPOCH":15291,"BSTAR":-8.6455101e-5,"MEAN_MOTION_DOT":-1.371e-5,"MEAN_MOTION_DDOT":0}]
